ONEWEB-0641             
1 55805U 23029K   23323.89893456  .00000074  00000+0  15245-3 0  9994
2 55805  87.9108 132.1248 0001176  93.3220 266.8047 13.19723739 34895
ONEWEB-0642             
1 55806U 23029L   23323.89420768  .00000087  00000+0  18504-3 0  9992
2 55806  87.9182 132.1300 0000389 124.1428 235.9741 13.19726355 34889
ONEWEB-0643             
1 55807U 23029M   23323.93722745 -.00000012  00000+0 -65695-4 0  9992
2 55807  87.8956 116.8864 0000792 150.7020 209.4154 13.14506621 35863
ONEWEB-0644             
1 55808U 23029N   23323.88946789  .00000067  00000+0  13518-3 0  9997
2 55808  87.9181 132.1226 0000855 104.3296 255.7932 13.19724208 34885
ONEWEB-0645             
1 55809U 23029P   23323.88550854 -.00000014  00000+0 -67134-4 0  9990
2 55809  87.9178 132.1273 0001013  73.1372 286.9871 13.19725861 34883
ONEWEB-0646             
1 55810U 23029Q   23323.91552291  .00000001  00000+0 -30285-4 0  9995
2 55810  87.9180 132.1246 0001265 100.3208 259.8067 13.19722360 34874
ONEWEB-0648             
1 55811U 23029R   23323.90550089 -.00000115  00000+0 -34363-3 0  9995
2 55811  87.8961 116.8615 0000343  83.6621 276.4547 13.14500327 35868
ONEWEB-0649             
1 55812U 23029S   23323.87840280  .00000066  00000+0  13280-3 0  9995
2 55812  87.9177 132.1317 0000925  84.0858 276.0380 13.19724382 34901
